ONEWEB-0027             
1 45432U 20020J   24009.56230757  .00000661  00000+0  16694-2 0  9992
2 45432  87.9205 182.7490 0001790  78.8021 281.3312 13.17644057189203
ONEWEB-0064             
1 45433U 20020K   24009.56491588  .00000066  00000+0  14916-3 0  9999
2 45433  87.8962 197.8754 0001750  84.6818 275.4510 13.11419411186083
ONEWEB-0018             
1 45434U 20020L   24009.59738614  .00000242  00000+0  64593-3 0  9999
2 45434  87.8959 197.8640 0001453  95.8715 264.2579 13.11415352186030
ONEWEB-0083             
1 45435U 20020M   24009.58604166  .00000621  00000+0  17151-2 0  9991
2 45435  87.8962 197.8456 0001516  90.3790 269.7511 13.11417032186070
ONEWEB-0095             
1 45436U 20020N   24009.57806073  .00000528  00000+0  14550-2 0  9998
2 45436  87.8959 197.8859 0001229  78.0430 282.0836 13.11418486186071
ONEWEB-0092             
1 45437U 20020P   24009.46913045 -.00000475  00000+0 -13763-2 0  9993
2 45437  87.8959 197.8871 0001203  78.1434 281.9829 13.11415102186176
ONEWEB-0085             
1 45438U 20020Q   24009.57953276  .00000507  00000+0  13934-2 0  9990
2 45438  87.8963 197.8696 0001667  95.6727 264.4591 13.11417748186079
ONEWEB-0096             
1 45439U 20020R   24009.58765180  .00000530  00000+0  14598-2 0  9990
2 45439  87.8963 197.8414 0001595 105.1937 254.9368 13.11416421186060
